ORBCOMM FM103           
1 40091U 14040F   24339.96570413  .00001997  00000+0  47174-3 0  9990
2 40091  47.0031 214.6318 0001643 121.6865 238.4181 14.57523182535760
ORBCOMM FM114           
1 41179U 15081A   24340.13165549  .00003235  00000+0  74015-3 0  9996
2 41179  47.0007 123.0225 0002718 201.5865 158.4906 14.57576535476202
ORBCOMM FM119           
1 41180U 15081B   24340.17778853  .00002141  00000+0  50336-3 0  9995
2 41180  47.0008  32.0393 0002207 261.9383  98.1251 14.57499888477410
ORBCOMM FM105           
1 41181U 15081C   24339.52111635  .00001002  00000+0  33022-3 0  9990
2 41181  47.0030  21.3700 0001709 200.9339 159.1472 14.44881065472594
ORBCOMM FM110           
1 41182U 15081D   24340.45048953  .00003042  00000+0  69814-3 0  9991
2 41182  47.0001 120.8965 0001865 296.1382  63.9312 14.57589552476251
ORBCOMM FM118           
1 41183U 15081E   24339.81282998  .00002680  00000+0  62050-3 0  9991
2 41183  47.0024 124.2756 0002311 299.0602  61.0051 14.57513595476081
ORBCOMM FM112           
1 41184U 15081F   24340.15493169  .00003003  00000+0  69076-3 0  9990
2 41184  46.9991  31.3328 0002126 247.7679 112.2981 14.57513205477400
ORBCOMM FM113           
1 41185U 15081G   24340.13240747  .00002875  00000+0  66271-3 0  9991
2 41185  47.0008  31.7417 0002232 264.1188  95.9443 14.57523364477408
